start=new Date('2023-03-16T00:00:00.000Z').valueOf();
sats=[{"SITE":"AFETR","PERIAPSIS":"538.883","EPHEMERIS_TYPE":"0","RCS_SIZE":"LARGE","CENTER_NAME":"EARTH","MEAN_ELEMENT_THEORY":"SGP4","OBJECT_TYPE":"PAYLOAD","TLE_LINE1":"1 53917U 22119AH  23074.50476450  .00004930  00000-0  32747-3 0  9999","COUNTRY_CODE":"US","REF_FRAME":"TEME","OBJECT_ID":"2022-119AH","MEAN_MOTION":"15.08858357","EPOCH":"2023-03-15T12:06:51.652800","APOAPSIS":"540.495","LAUNCH_DATE":"2022-09-24","OBJECT_NAME":"STARLINK-5036","TLE_LINE2":"2 53917  53.2161 168.1732 0001165  68.9540 291.1577 15.08858357 27245","MEAN_ANOMALY":"291.1577","BSTAR":"0.00032747000000","MEAN_MOTION_DDOT":"0.0000000000000","DECAY_DATE":null,"RA_OF_ASC_NODE":"168.1732","PERIOD":"95.436","NORAD_CAT_ID":"53917","FILE":"3861350","INCLINATION":"53.2161","GP_ID":"228152087","ELEMENT_SET_NO":"999","MEAN_MOTION_DOT":"0.00004930","ARG_OF_PERICENTER":"68.9540","SEMIMAJOR_AXIS":"6917.824","ECCENTRICITY":"0.00011650","TIME_SYSTEM":"UTC","REV_AT_EPOCH":"2724","CLASSIFICATION_TYPE":"U"},{"OBJECT_TYPE":"PAYLOAD","MEAN_ELEMENT_THEORY":"SGP4","RCS_SIZE":"LARGE","CENTER_NAME":"EARTH","EPHEMERIS_TYPE":"0","SITE":"AFETR","PERIAPSIS":"538.544","TLE_LINE1":"1 53918U 22119AJ  23074.49370955  .00019483  00000-0  12377-2 0  9996","EPOCH":"2023-03-15T11:50:56.505120","OBJECT_ID":"2022-119AJ","MEAN_MOTION":"15.08873267","COUNTRY_CODE":"US","REF_FRAME":"TEME","MEAN_MOTION_DDOT":"0.0000000000000","BSTAR":"0.00123770000000","MEAN_ANOMALY":"292.5511","TLE_LINE2":"2 53918  53.2180 168.1030 0001590  67.5649 292.5511 15.08873267 27245","LAUNCH_DATE":"2022-09-24","OBJECT_NAME":"STARLINK-5012","APOAPSIS":"540.744","PERIOD":"95.435","RA_OF_ASC_NODE":"168.1030","DECAY_DATE":null,"GP_ID":"228152339","INCLINATION":"53.2180","NORAD_CAT_ID":"53918","FILE":"3861350","SEMIMAJOR_AXIS":"6917.779","ARG_OF_PERICENTER":"67.5649","MEAN_MOTION_DOT":"0.00019483","ELEMENT_SET_NO":"999","CLASSIFICATION_TYPE":"U","REV_AT_EPOCH":"2724","TIME_SYSTEM":"UTC","ECCENTRICITY":"0.00015900"},{"BSTAR":"0.00096790000000","MEAN_ANOMALY":"247.4020","MEAN_MOTION_DDOT":"0.0000000000000","OBJECT_NAME":"STARLINK-5023","LAUNCH_DATE":"2022-09-24","APOAPSIS":"541.094","TLE_LINE2":"2 53919  53.2183 168.0799 0002083 112.7193 247.4020 15.08870205 27248","EPOCH":"2023-03-15T11:45:37.833408","COUNTRY_CODE":"US","REF_FRAME":"TEME","OBJECT_ID":"2022-119AK","MEAN_MOTION":"15.08870205","TLE_LINE1":"1 53919U 22119AK  23074.49002122  .00015162  00000-0  96790-3 0  9997","RCS_SIZE":"LARGE","CENTER_NAME":"EARTH","OBJECT_TYPE":"PAYLOAD","MEAN_ELEMENT_THEORY":"SGP4","EPHEMERIS_TYPE":"0","SITE":"AFETR","PERIAPSIS":"538.212","REV_AT_EPOCH":"2724","CLASSIFICATION_TYPE":"U","TIME_SYSTEM":"UTC","ECCENTRICITY":"0.00020830","SEMIMAJOR_AXIS":"6917.788","ARG_OF_PERICENTER":"112.7193","ELEMENT_SET_NO":"999","MEAN_MOTION_DOT":"0.00015162","GP_ID":"228153089","INCLINATION":"53.2183","NORAD_CAT_ID":"53919","FILE":"3861350","RA_OF_ASC_NODE":"168.0799","PERIOD":"95.436","DECAY_DATE":null},{"DECAY_DATE":null,"PERIOD":"95.436","RA_OF_ASC_NODE":"167.1414","FILE":"3861599","NORAD_CAT_ID":"53920","INCLINATION":"53.2147","GP_ID":"228209983","MEAN_MOTION_DOT":"0.00009052","ELEMENT_SET_NO":"999","ARG_OF_PERICENTER":"112.9398","SEMIMAJOR_AXIS":"6917.784","ECCENTRICITY":"0.00020050","TIME_SYSTEM":"UTC","CLASSIFICATION_TYPE":"U","REV_AT_EPOCH":"2727","SITE":"AFETR","PERIAPSIS":"538.262","EPHEMERIS_TYPE":"0","OBJECT_TYPE":"PAYLOAD","MEAN_ELEMENT_THEORY":"SGP4","CENTER_NAME":"EARTH","RCS_SIZE":"LARGE","TLE_LINE1":"1 53920U 22119AL  23074.68136393  .00009052  00000-0  58560-3 0  9992","OBJECT_ID":"2022-119AL","MEAN_MOTION":"15.08871397","COUNTRY_CODE":"US","REF_FRAME":"TEME","EPOCH":"2023-03-15T16:21:09.843552","TLE_LINE2":"2 53920  53.2147 167.1414 0002005 112.9398 247.1806 15.08871397 27272","APOAPSIS":"541.036","LAUNCH_DATE":"2022-09-24","OBJECT_NAME":"STARLINK-5025","MEAN_MOTION_DDOT":"0.0000000000000","MEAN_ANOMALY":"247.1806","BSTAR":"0.00058560000000"},{"GP_ID":"228209734","INCLINATION":"53.2168","NORAD_CAT_ID":"53922","FILE":"3861599","RA_OF_ASC_NODE":"167.1140","PERIOD":"95.436","DECAY_DATE":null,"REV_AT_EPOCH":"2727","CLASSIFICATION_TYPE":"U","TIME_SYSTEM":"UTC","ECCENTRICITY":"0.00015200","SEMIMAJOR_AXIS":"6917.786","ARG_OF_PERICENTER":"124.5779","ELEMENT_SET_NO":"999","MEAN_MOTION_DOT":"0.00010156","TLE_LINE1":"1 53922U 22119AN  23074.67767515  .00010156  00000-0  65470-3 0  9994","CENTER_NAME":"EARTH","RCS_SIZE":"LARGE","MEAN_ELEMENT_THEORY":"SGP4","OBJECT_TYPE":"PAYLOAD","EPHEMERIS_TYPE":"0","SITE":"AFETR","PERIAPSIS":"538.599","BSTAR":"0.00065470000000","MEAN_ANOMALY":"235.5357","MEAN_MOTION_DDOT":"0.0000000000000","OBJECT_NAME":"STARLINK-5002","LAUNCH_DATE":"2022-09-24","APOAPSIS":"540.702","TLE_LINE2":"2 53922  53.2168 167.1140 0001520 124.5779 235.5357 15.08871044 27277","EPOCH":"2023-03-15T16:15:51.132960","COUNTRY_CODE":"US","REF_FRAME":"TEME","MEAN_MOTION":"15.08871044","OBJECT_ID":"2022-119AN"},{"TIME_SYSTEM":"UTC","ECCENTRICITY":"0.00020520","REV_AT_EPOCH":"2724","CLASSIFICATION_TYPE":"U","ELEMENT_SET_NO":"999","MEAN_MOTION_DOT":"0.00000723","SEMIMAJOR_AXIS":"6917.800","ARG_OF_PERICENTER":"120.5529","INCLINATION":"53.2206","FILE":"3861350","NORAD_CAT_ID":"53923","GP_ID":"228152839","DECAY_DATE":null,"RA_OF_ASC_NODE":"168.0558","PERIOD":"95.436","OBJECT_NAME":"STARLINK-5004","LAUNCH_DATE":"2022-09-24","APOAPSIS":"541.084","TLE_LINE2":"2 53923  53.2206 168.0558 0002052 120.5529 239.5666 15.08866314 27242","BSTAR":"0.00006348500000","MEAN_ANOMALY":"239.5666","MEAN_MOTION_DDOT":"0.0000000000000","COUNTRY_CODE":"US","REF_FRAME":"TEME","OBJECT_ID":"2022-119AP","MEAN_MOTION":"15.08866314","EPOCH":"2023-03-15T11:40:19.068384","TLE_LINE1":"1 53923U 22119AP  23074.48633181  .00000723  00000-0  63485-4 0  9999","EPHEMERIS_TYPE":"0","PERIAPSIS":"538.245","SITE":"AFETR","CENTER_NAME":"EARTH","RCS_SIZE":"LARGE","OBJECT_TYPE":"PAYLOAD","MEAN_ELEMENT_THEORY":"SGP4"},{"DECAY_DATE":null,"RA_OF_ASC_NODE":"162.8805","PERIOD":"95.435","INCLINATION":"53.2157","FILE":"3861599","NORAD_CAT_ID":"53924","GP_ID":"228210736","ELEMENT_SET_NO":"999","MEAN_MOTION_DOT":"0.00009085","ARG_OF_PERICENTER":"91.5442","SEMIMAJOR_AXIS":"6917.772","TIME_SYSTEM":"UTC","ECCENTRICITY":"0.00013660","REV_AT_EPOCH":"2732","CLASSIFICATION_TYPE":"U","EPHEMERIS_TYPE":"0","SITE":"AFETR","PERIAPSIS":"538.692","CENTER_NAME":"EARTH","RCS_SIZE":"LARGE","MEAN_ELEMENT_THEORY":"SGP4","OBJECT_TYPE":"PAYLOAD","TLE_LINE1":"1 53924U 22119AQ  23074.57057057  .00009085  00000-0  58757-3 0  9997","COUNTRY_CODE":"US","REF_FRAME":"TEME","MEAN_MOTION":"15.08875613","OBJECT_ID":"2022-119AQ","EPOCH":"2023-03-15T13:41:37.297248","LAUNCH_DATE":"2022-09-24","OBJECT_NAME":"STARLINK-5001","APOAPSIS":"540.582","TLE_LINE2":"2 53924  53.2157 162.8805 0001366  91.5442 268.5707 15.08875613 27322","BSTAR":"0.00058757000000","MEAN_ANOMALY":"268.5707","MEAN_MOTION_DDOT":"0.0000000000000"},{"EPOCH":"2023-03-15T14:19:14.756448","OBJECT_ID":"2022-119AR","MEAN_MOTION":"15.08879849","REF_FRAME":"TEME","COUNTRY_CODE":"US","MEAN_MOTION_DDOT":"0.0000000000000","MEAN_ANOMALY":"270.9519","BSTAR":"0.00047169000000","TLE_LINE2":"2 53925  53.2166 167.3332 0001597  89.1656 270.9519 15.08879849 27260","APOAPSIS":"540.728","OBJECT_NAME":"STARLINK-5011","LAUNCH_DATE":"2022-09-24","MEAN_ELEMENT_THEORY":"SGP4","OBJECT_TYPE":"PAYLOAD","CENTER_NAME":"EARTH","RCS_SIZE":"LARGE","PERIAPSIS":"538.519","SITE":"AFETR","EPHEMERIS_TYPE":"0","TLE_LINE1":"1 53925U 22119AR  23074.59669857  .00007235  00000-0  47169-3 0  9997","SEMIMAJOR_AXIS":"6917.759","ARG_OF_PERICENTER":"89.1656","MEAN_MOTION_DOT":"0.00007235","ELEMENT_SET_NO":"999","CLASSIFICATION_TYPE":"U","REV_AT_EPOCH":"2726","ECCENTRICITY":"0.00015970","TIME_SYSTEM":"UTC","PERIOD":"95.435","RA_OF_ASC_NODE":"167.3332","DECAY_DATE":null,"GP_ID":"228209484","FILE":"3861599","NORAD_CAT_ID":"53925","INCLINATION":"53.2166"},{"APOAPSIS":"540.231","OBJECT_NAME":"STARLINK-5014","LAUNCH_DATE":"2022-09-24","TLE_LINE2":"2 53926  53.2156 162.1500 0001009  82.7427 277.3680 15.08909406 27356","MEAN_ANOMALY":"277.3680","BSTAR":"0.00223080000000","MEAN_MOTION_DDOT":"0.0000000000000","COUNTRY_CODE":"US","REF_FRAME":"TEME","MEAN_MOTION":"15.08909406","OBJECT_ID":"2022-119AS","EPOCH":"2023-03-15T16:19:10.449984","TLE_LINE1":"1 53926U 22119AS  23074.67998206  .00035462  00000-0  22308-2 0  9990","PERIAPSIS":"538.835","SITE":"AFETR","EPHEMERIS_TYPE":"0","CENTER_NAME":"EARTH","RCS_SIZE":"LARGE","OBJECT_TYPE":"PAYLOAD","MEAN_ELEMENT_THEORY":"SGP4","ECCENTRICITY":"0.00010090","TIME_SYSTEM":"UTC","REV_AT_EPOCH":"2735","CLASSIFICATION_TYPE":"U","ELEMENT_SET_NO":"999","MEAN_MOTION_DOT":"0.00035462","ARG_OF_PERICENTER":"82.7427","SEMIMAJOR_AXIS":"6917.668","NORAD_CAT_ID":"53926","FILE":"3861599","INCLINATION":"53.2156","GP_ID":"228210234","DECAY_DATE":null,"RA_OF_ASC_NODE":"162.1500","PERIOD":"95.433"},{"OBJECT_ID":"2022-119AT","MEAN_MOTION":"15.08858180","REF_FRAME":"TEME","COUNTRY_CODE":"US","EPOCH":"2023-03-15T11:59:33.299808","TLE_LINE2":"2 53927  53.2177 163.1649 0001229  85.6618 274.4514 15.08858180 27315","OBJECT_NAME":"STARLINK-5008","LAUNCH_DATE":"2022-09-24","APOAPSIS":"540.540","MEAN_MOTION_DDOT":"0.0000000000000","BSTAR":"0.00012671000000","MEAN_ANOMALY":"274.4514","EPHEMERIS_TYPE":"0","SITE":"AFETR","PERIAPSIS":"538.840","MEAN_ELEMENT_THEORY":"SGP4","OBJECT_TYPE":"PAYLOAD","CENTER_NAME":"EARTH","RCS_SIZE":"LARGE","TLE_LINE1":"1 53927U 22119AT  23074.49969097  .00001730  00000-0  12671-3 0  9991","MEAN_MOTION_DOT":"0.00001730","ELEMENT_SET_NO":"999","ARG_OF_PERICENTER":"85.6618","SEMIMAJOR_AXIS":"6917.825","TIME_SYSTEM":"UTC","ECCENTRICITY":"0.00012290","CLASSIFICATION_TYPE":"U","REV_AT_EPOCH":"2731","DECAY_DATE":null,"PERIOD":"95.436","RA_OF_ASC_NODE":"163.1649","INCLINATION":"53.2177","FILE":"3861350","NORAD_CAT_ID":"53927","GP_ID":"228152340"}];
